{"type":"FeatureCollection","features":[{"type":"Feature","geometry":{"type":"MultiLineString","coordinates":[[[58.787988,20.496582],[58.641211,20.337354],[58.640918,20.210693],[58.659082,20.203613],[58.72207,20.21875],[58.772266,20.266846],[58.835156,20.423926],[58.950781,20.516162],[58.884375,20.680566],[58.787988,20.496582]],[[57.843652,20.117725],[57.861816,20.244141],[57.947168,20.343604],[58.10293,20.570361],[58.169434,20.589502],[58.24502,20.599219],[58.231641,20.506836],[58.208984,20.423975],[58.266016,20.395459],[58.34873,20.386914],[58.474219,20.406885],[58.53418,20.503906],[58.69043,20.807129],[58.895703,21.112793],[59.06875,21.289062],[59.304492,21.435352],[59.371484,21.498828],[59.517578,21.782324],[59.652539,21.951367],[59.680859,22.053809],[59.8,22.219922],[59.824414,22.305176],[59.8375,22.420557],[59.823242,22.508984],[59.695605,22.546143],[59.535156,22.578516],[59.429395,22.66084],[59.310938,22.793359],[59.194727,22.971875],[59.029883,23.130566],[58.983398,23.234717],[58.911523,23.33418],[58.830371,23.397461],[58.773047,23.517187],[58.578027,23.643457],[58.5,23.645654],[58.393164,23.618164],[58.324512,23.623828],[58.12041,23.716553],[57.825098,23.759131],[57.611328,23.803662],[57.219824,23.922754],[57.123047,23.980713]],[[57.036035,26.800684],[57.071973,26.680078],[57.104297,26.371436],[57.201367,26.158838],[57.205566,26.037207],[57.260938,25.918848],[57.33457,25.791553],[57.73252,25.724902],[57.796094,25.653027],[57.936621,25.69165],[58.022363,25.64082],[58.20293,25.591602],[58.314258,25.580859],[58.530859,25.592432],[58.797852,25.55459],[59.046094,25.417285],[59.227246,25.427734],[59.456055,25.481494],[59.616016,25.403271],[59.818359,25.400879],[59.89707,25.361816],[60.024707,25.384131],[60.400195,25.311572],[60.510547,25.437061],[60.5875,25.413525],[60.615137,25.329834],[60.663867,25.282227],[61.108594,25.183887],[61.242969,25.141992],[61.412207,25.1021],[61.490332,25.153662],[61.533105,25.195508],[61.743652,25.138184],[61.90791,25.131299],[62.089453,25.155322],[62.152148,25.206641],[62.198633,25.224854],[62.24873,25.197363],[62.315332,25.134912],[62.391211,25.152539],[62.444727,25.197266],[62.572461,25.254736],[62.664746,25.264795],[63.015039,25.224658],[63.17002,25.254883],[63.285742,25.227588],[63.491406,25.21084],[63.495703,25.29751],[63.556641,25.353174],[63.720898,25.385889],[63.935547,25.342529],[63.987305,25.351172],[64.059375,25.40293],[64.124902,25.373926],[64.152051,25.333447],[64.54375,25.23667],[64.594043,25.206299],[64.658984,25.184082],[64.77666,25.307324],[65.061328,25.311084],[65.40625,25.374316],[65.679688,25.355273],[65.883594,25.419629],[66.234668,25.464355],[66.32832,25.465771],[66.40293,25.446826],[66.467676,25.445312],[66.407129,25.485059],[66.356445,25.507373],[66.131152,25.493262],[66.162305,25.553906],[66.219043,25.589893],[66.324219,25.601807],[66.428613,25.575342],[66.533887,25.484375],[66.569922,25.378516],[66.698633,25.226318],[66.709863,25.111328],[66.682227,24.928857],[66.703027,24.860937],[67.100586,24.791943],[67.171484,24.756104],[67.288672,24.367773],[67.304297,24.262891],[67.309375,24.174805],[67.365234,24.091602],[67.427637,24.064844],[67.453906,24.039893],[67.476855,24.018262],[67.503613,23.940039],[67.563086,23.881836],[67.645801,23.919873],[67.649512,23.867285],[67.668457,23.810986],[67.819043,23.828076],[67.859961,23.902686],[67.950977,23.828613],[68.001465,23.826074],[68.037012,23.848242],[68.067773,23.818359],[68.115527,23.753369],[68.148828,23.797217],[68.165039,23.857324],[68.191992,23.728906],[68.234961,23.596973],[68.343359,23.616846],[68.424902,23.705566],[68.496875,23.747998],[68.642383,23.808496],[68.776758,23.8521],[68.627148,23.75415],[68.453809,23.629492],[68.41748,23.571484],[68.529199,23.364063],[68.640723,23.189941],[68.81709,23.053711],[69.235938,22.848535],[69.664648,22.759082],[69.739648,22.775195],[69.849805,22.856445],[70.118262,22.947021],[70.191699,22.965674],[70.251172,22.970898],[70.339453,22.939746],[70.367969,22.973486],[70.396289,23.030127],[70.43457,23.0771],[70.489258,23.089502],[70.509375,23.040137],[70.513477,23.00249],[70.44043,22.970312],[70.327734,22.815771],[70.177246,22.572754],[70.08418,22.553516],[70.005859,22.547705],[69.819043,22.451758],[69.727539,22.465186],[69.655176,22.403516],[69.549219,22.408398],[69.276563,22.285498],[69.238867,22.300195],[69.194238,22.336084],[69.131348,22.41626],[69.05166,22.437305],[68.983496,22.3854],[68.969922,22.290283],[69.008789,22.196777],[69.191699,21.991504],[69.385449,21.839551],[69.541992,21.678564],[69.748438,21.505713],[70.034375,21.178809],[70.127344,21.094678],[70.485059,20.840186],[70.719336,20.74043],[70.879688,20.714502],[71.024609,20.738867],[71.396484,20.869775],[71.571094,20.970557],[72.015234,21.155713],[72.076563,21.224072],[72.254004,21.531006],[72.256641,21.66123],[72.210352,21.728223],[72.170898,21.774316],[72.10293,21.79458],[72.037207,21.823047],[72.075586,21.862988],[72.094434,21.919971],[72.161719,21.984814],[72.244336,22.027637],[72.274414,22.089746],[72.306445,22.189209],[72.242578,22.245166],[72.182813,22.269727],[72.332617,22.270215],[72.455957,22.248096],[72.590137,22.278125],[72.701953,22.263623],[72.80918,22.233301],[72.708789,22.207178],[72.62793,22.199609],[72.553027,22.159961],[72.522266,21.976221],[72.61748,21.961719],[72.700195,21.971924],[72.644043,21.937988],[72.59248,21.877588],[72.543066,21.696582],[72.839746,21.687256],[72.979102,21.704687],[73.1125,21.750439],[73.022461,21.699609],[72.810547,21.619922],[72.717578,21.55127],[72.613281,21.461816],[72.668359,21.455908],[72.734766,21.470801],[72.686523,21.435742],[72.623828,21.371973],[72.692383,21.177637],[72.751563,21.12915],[72.813867,21.117188],[72.824316,21.083594],[72.840527,20.95249],[72.878906,20.828516],[72.89375,20.672754],[72.881152,20.563184],[72.708984,20.078027]]]},"properties":{}}]}